$$SOE
2461323.500000000, A.D. 2026-Oct-10 00:00:00.0000, 1.582108820140393E+09, 3.559456466429602E+09, 1.888263880796659E+08,
2461330.500000000, A.D. 2026-Oct-17 00:00:00.0000, 1.580231033098180E+09, 3.561637367648524E+09, 1.888468219075460E+08,
2461337.500000000, A.D. 2026-Oct-24 00:00:00.0000, 1.578351976718002E+09, 3.563815289819860E+09, 1.888671008201275E+08,
2461344.500000000, A.D. 2026-Oct-31 00:00:00.0000, 1.576471654510442E+09, 3.565990231164873E+09, 1.888872248860066E+08,
2461351.500000000, A.D. 2026-Nov-07 00:00:00.0000, 1.574590070780427E+09, 3.568162189273744E+09, 1.889071940521879E+08,
2461358.500000000, A.D. 2026-Nov-14 00:00:00.0000, 1.572707231709049E+09, 3.570331161626044E+09, 1.889270080803223E+08,
2461365.500000000, A.D. 2026-Nov-21 00:00:00.0000, 1.570823145251781E+09, 3.572497147591881E+09, 1.889466667124584E+08,
2461372.500000000, A.D. 2026-Nov-28 00:00:00.0000, 1.568937818855001E+09, 3.574660148905632E+09, 1.889661699122825E+08,
2461379.500000000, A.D. 2026-Dec-05 00:00:00.0000, 1.567051258610368E+09, 3.576820167955959E+09, 1.889855177965155E+08,
2461386.500000000, A.D. 2026-Dec-12 00:00:00.0000, 1.565163470011962E+09, 3.578977207003068E+09, 1.890047104958720E+08,
2461393.500000000, A.D. 2026-Dec-19 00:00:00.0000, 1.563274458428935E+09, 3.581131268329660E+09, 1.890237481194599E+08,
2461400.500000000, A.D. 2026-Dec-26 00:00:00.0000, 1.561384229151236E+09, 3.583282354457485E+09, 1.890426307649632E+08,
2461407.500000000, A.D. 2027-Jan-02 00:00:00.0000, 1.559492787283990E+09, 3.585430468238460E+09, 1.890613585338821E+08,
2461414.500000000, A.D. 2027-Jan-09 00:00:00.0000, 1.557600137606854E+09, 3.587575612840356E+09, 1.890799315428739E+08,
2461421.500000000, A.D. 2027-Jan-16 00:00:00.0000, 1.555706284432658E+09, 3.589717791635667E+09, 1.890983499287479E+08,
2461428.500000000, A.D. 2027-Jan-23 00:00:00.0000, 1.553811231509887E+09, 3.591857007953798E+09, 1.891166138396847E+08,
2461435.500000000, A.D. 2027-Jan-30 00:00:00.0000, 1.551914982155140E+09, 3.593993264648632E+09, 1.891347233915174E+08,
2461442.500000000, A.D. 2027-Feb-06 00:00:00.0000, 1.550017540038672E+09, 3.596126563821324E+09, 1.891526785778172E+08,
2461449.500000000, A.D. 2027-Feb-13 00:00:00.0000, 1.548118910161109E+09, 3.598256907917899E+09, 1.891704792755537E+08,
2461456.500000000, A.D. 2027-Feb-20 00:00:00.0000, 1.546219097656176E+09, 3.600384301410519E+09, 1.891881254983075E+08,
2461463.500000000, A.D. 2027-Feb-27 00:00:00.0000, 1.544318105814389E+09, 3.602508749848746E+09, 1.892056175061872E+08,
2461470.500000000, A.D. 2027-Mar-06 00:00:00.0000, 1.542415936345199E+09, 3.604630258203318E+09, 1.892229556525438E+08,
2461477.500000000, A.D. 2027-Mar-13 00:00:00.0000, 1.540512590277071E+09, 3.606748830551907E+09, 1.892401402815561E+08,
2461484.500000000, A.D. 2027-Mar-20 00:00:00.0000, 1.538608068365908E+09, 3.608864470272243E+09, 1.892571717118793E+08,
2461491.500000000, A.D. 2027-Mar-27 00:00:00.0000, 1.536702371213806E+09, 3.610977180193608E+09, 1.892740502428236E+08,
2461498.500000000, A.D. 2027-Apr-03 00:00:00.0000, 1.534795499301030E+09, 3.613086962659016E+09, 1.892907761604538E+08,
2461505.500000000, A.D. 2027-Apr-10 00:00:00.0000, 1.532887452992442E+09, 3.615193819521097E+09, 1.893073497397885E+08,
2461512.500000000, A.D. 2027-Apr-17 00:00:00.0000, 1.530978232540480E+09, 3.617297752057423E+09, 1.893237712398734E+08,
2461519.500000000, A.D. 2027-Apr-24 00:00:00.0000, 1.529067838163880E+09, 3.619398760743061E+09, 1.893400408793468E+08,
2461526.500000000, A.D. 2027-May-01 00:00:00.0000, 1.527156270501781E+09, 3.621496844908211E+09, 1.893561587672904E+08,
2461533.500000000, A.D. 2027-May-08 00:00:00.0000, 1.525243531750615E+09, 3.623592003029291E+09, 1.893721248223372E+08,
2461540.500000000, A.D. 2027-May-15 00:00:00.0000, 1.523329625986899E+09, 3.625684234606925E+09, 1.893879388952746E+08,
2461547.500000000, A.D. 2027-May-22 00:00:00.0000, 1.521414557112070E+09, 3.627773541039222E+09, 1.894036010267942E+08,
2461554.500000000, A.D. 2027-May-29 00:00:00.0000, 1.519498327775288E+09, 3.629859924022073E+09, 1.894191114126897E+08,
2461561.500000000, A.D. 2027-Jun-05 00:00:00.0000, 1.517580940159054E+09, 3.631943384608258E+09, 1.894344702513635E+08,
2461568.500000000, A.D. 2027-Jun-12 00:00:00.0000, 1.515662396620103E+09, 3.634023923357115E+09, 1.894496776931686E+08,
2461575.500000000, A.D. 2027-Jun-19 00:00:00.0000, 1.513742699854555E+09, 3.636101540639779E+09, 1.894647338456829E+08,
2461582.500000000, A.D. 2027-Jun-26 00:00:00.0000, 1.511821852866745E+09, 3.638176236838680E+09, 1.894796387881048E+08,
2461589.500000000, A.D. 2027-Jul-03 00:00:00.0000, 1.509899858873853E+09, 3.640248012449589E+09, 1.894943925835505E+08,
2461596.500000000, A.D. 2027-Jul-10 00:00:00.0000, 1.507976721183187E+09, 3.642316868094930E+09, 1.895089952868249E+08,
2461603.500000000, A.D. 2027-Jul-17 00:00:00.0000, 1.506052443078449E+09, 3.644382804409525E+09, 1.895234469414001E+08,
2461610.500000000, A.D. 2027-Jul-24 00:00:00.0000, 1.504127027871434E+09, 3.646445821735920E+09, 1.895377475463760E+08,
2461617.500000000, A.D. 2027-Jul-31 00:00:00.0000, 1.502200479530573E+09, 3.648505919864855E+09, 1.895518969751613E+08,
2461624.500000000, A.D. 2027-Aug-07 00:00:00.0000, 1.500272803685599E+09, 3.650563098972576E+09, 1.895658949585793E+08,
2461631.500000000, A.D. 2027-Aug-14 00:00:00.0000, 1.498344006707243E+09, 3.652617361501682E+09, 1.895797413228717E+08,
2461638.500000000, A.D. 2027-Aug-21 00:00:00.0000, 1.496414093480139E+09, 3.654668711621335E+09, 1.895934361509933E+08,
2461645.500000000, A.D. 2027-Aug-28 00:00:00.0000, 1.494483067300027E+09, 3.656717153470040E+09, 1.896069796508167E+08,
2461652.500000000, A.D. 2027-Sep-04 00:00:00.0000, 1.492550930714099E+09, 3.658762690683304E+09, 1.896203720429575E+08,
2461659.500000000, A.D. 2027-Sep-11 00:00:00.0000, 1.490617685909179E+09, 3.660805326544880E+09, 1.896336135419409E+08,
2461666.500000000, A.D. 2027-Sep-18 00:00:00.0000, 1.488683334780911E+09, 3.662845064111506E+09, 1.896467043651216E+08,
2461673.500000000, A.D. 2027-Sep-25 00:00:00.0000, 1.486747878912823E+09, 3.664881906233752E+09, 1.896596447417569E+08,
2461680.500000000, A.D. 2027-Oct-02 00:00:00.0000, 1.484811319540341E+09, 3.666915855500866E+09, 1.896724349173374E+08,
2461687.500000000, A.D. 2027-Oct-09 00:00:00.0000, 1.482873657522253E+09, 3.668946914105515E+09, 1.896850751504898E+08,
2461694.500000000, A.D. 2027-Oct-16 00:00:00.0000, 1.480934893382894E+09, 3.670975083573960E+09, 1.896975656919534E+08,
2461701.500000000, A.D. 2027-Oct-23 00:00:00.0000, 1.478995027685081E+09, 3.673000364356377E+09, 1.897099067211332E+08,
2461708.500000000, A.D. 2027-Oct-30 00:00:00.0000, 1.477054062108609E+09, 3.675022755887980E+09, 1.897220982556074E+08,
2461715.500000000, A.D. 2027-Nov-06 00:00:00.0000, 1.475112000071018E+09, 3.677042258249407E+09, 1.897341402323833E+08,
2461722.500000000, A.D. 2027-Nov-13 00:00:00.0000, 1.473168844905253E+09, 3.679058873350330E+09, 1.897460327732568E+08,
2461729.500000000, A.D. 2027-Nov-20 00:00:00.0000, 1.471224598496141E+09, 3.681072603450654E+09, 1.897577761894767E+08,
2461736.500000000, A.D. 2027-Nov-27 00:00:00.0000, 1.469279261993288E+09, 3.683083449983820E+09, 1.897693708196468E+08,
2461743.500000000, A.D. 2027-Dec-04 00:00:00.0000, 1.467332836576846E+09, 3.685091413596272E+09, 1.897808169611862E+08,
2461750.500000000, A.D. 2027-Dec-11 00:00:00.0000, 1.465385323725592E+09, 3.687096494439167E+09, 1.897921148671112E+08,
2461757.500000000, A.D. 2027-Dec-18 00:00:00.0000, 1.463436725262296E+09, 3.689098692373344E+09, 1.898032647552884E+08,
2461764.500000000, A.D. 2027-Dec-25 00:00:00.0000, 1.461487043328366E+09, 3.691098007085489E+09, 1.898142668161309E+08,
2461771.500000000, A.D. 2028-Jan-01 00:00:00.0000, 1.459536280329188E+09, 3.693094438130166E+09, 1.898251212162359E+08,
$$EOE